{"type":"FeatureCollection","name":"AMRP India Expansion v5 - local pixel coordinates","features":[{"type":"Feature","properties":{"regionKey":"india_maurya_takshashila","settlement":"Takşila","country":"Maurya İmparatorluğu","component":"0-0"},"geometry":{"type":"Polygon","coordinates":[[[4184,1908],[4184,1912],[4192,1912],[4192,1916],[4164,1916],[4164,1920],[4156,1920],[4156,1924],[4152,1924],[4152,1928],[4148,1928],[4148,1932],[4144,1932],[4144,1936],[4140,1936],[4140,1940],[4132,1940],[4132,1944],[4128,1944],[4128,1952],[4132,1952],[4132,1956],[4128,1956],[4128,1960],[4156,1960],[4156,1968],[4164,1968],[4164,1972],[4184,1972],[4184,1976],[4180,1976],[4180,1988],[4200,1988],[4200,1992],[4196,1992],[4196,2000],[4192,2000],[4192,2004],[4184,2004],[4184,2008],[4176,2008],[4176,2016],[4168,2016],[4168,2024],[4164,2024],[4164,2028],[4168,2028],[4168,2044],[4172,2044],[4172,2084],[4176,2084],[4176,2088],[4188,2088],[4188,2092],[4196,2092],[4196,2096],[4204,2096],[4204,2100],[4216,2100],[4216,2112],[4244,2112],[4244,2116],[4260,2116],[4260,2112],[4268,2112],[4268,2108],[4272,2108],[4272,2104],[4276,2104],[4276,2092],[4272,2092],[4272,2088],[4280,2088],[4280,2084],[4288,2084],[4288,2080],[4292,2080],[4292,2076],[4296,2076],[4296,2072],[4316,2072],[4316,2076],[4320,2076],[4320,2080],[4328,2080],[4328,2084],[4352,2084],[4352,2080],[4360,2080],[4360,2084],[4364,2084],[4364,2092],[4360,2092],[4360,2096],[4352,2096],[4352,2100],[4348,2100],[4348,2104],[4340,2104],[4340,2108],[4336,2108],[4336,2112],[4328,2112],[4328,2116],[4324,2116],[4324,2120],[4316,2120],[4316,2124],[4312,2124],[4312,2128],[4308,2128],[4308,2132],[4300,2132],[4300,2136],[4296,2136],[4296,2140],[4292,2140],[4292,2144],[4288,2144],[4288,2148],[4280,2148],[4280,2152],[4276,2152],[4276,2156],[4272,2156],[4272,2160],[4268,2160],[4268,2164],[4264,2164],[4264,2168],[4260,2168],[4260,2172],[4256,2172],[4256,2176],[4252,2176],[4252,2180],[4248,2180],[4248,2184],[4244,2184],[4244,2188],[4240,2188],[4240,2192],[4236,2192],[4236,2200],[4232,2200],[4232,2204],[4228,2204],[4228,2208],[4224,2208],[4224,2216],[4220,2216],[4220,2220],[4216,2220],[4216,2228],[4212,2228],[4212,2232],[4208,2232],[4208,2240],[4204,2240],[4204,2248],[4200,2248],[4200,2252],[4196,2252],[4196,2260],[4192,2260],[4192,2264],[4188,2264],[4188,2272],[4184,2272],[4184,2276],[4176,2276],[4176,2280],[4156,2280],[4156,2284],[4144,2284],[4144,2288],[4128,2288],[4128,2292],[4116,2292],[4116,2296],[4104,2296],[4104,2300],[4092,2300],[4092,2304],[4080,2304],[4080,2308],[4068,2308],[4068,2312],[4060,2312],[4060,2316],[4048,2316],[4048,2320],[4036,2320],[4036,2324],[4028,2324],[4028,2328],[4016,2328],[4016,2332],[4008,2332],[4008,2336],[3996,2336],[3996,2340],[3984,2340],[3984,2344],[3976,2344],[3976,2348],[3964,2348],[3964,2352],[3952,2352],[3952,2356],[3940,2356],[3940,2360],[3928,2360],[3928,2364],[3916,2364],[3916,2368],[3900,2368],[3900,2372],[3884,2372],[3884,2376],[3868,2376],[3868,2380],[3848,2380],[3848,2384],[3828,2384],[3828,2388],[3800,2388],[3800,2392],[3772,2392],[3772,2396],[3744,2396],[3744,2400],[3720,2400],[3720,2404],[3696,2404],[3696,2408],[3684,2408],[3684,2404],[3688,2404],[3688,2388],[3668,2388],[3668,2340],[3664,2340],[3664,2344],[3660,2344],[3660,2340],[3656,2340],[3656,2336],[3644,2336],[3644,2332],[3628,2332],[3628,2328],[3624,2328],[3624,2324],[3620,2324],[3620,2320],[3616,2320],[3616,2312],[3612,2312],[3612,2304],[3608,2304],[3608,2300],[3604,2300],[3604,2292],[3600,2292],[3600,2276],[3612,2276],[3612,2280],[3628,2280],[3628,2284],[3644,2284],[3644,2288],[3672,2288],[3672,2284],[3700,2284],[3700,2280],[3716,2280],[3716,2284],[3732,2284],[3732,2280],[3740,2280],[3740,2276],[3776,2276],[3776,2272],[3788,2272],[3788,2268],[3804,2268],[3804,2264],[3816,2264],[3816,2260],[3828,2260],[3828,2256],[3832,2256],[3832,2248],[3828,2248],[3828,2244],[3832,2244],[3832,2232],[3836,2232],[3836,2228],[3832,2228],[3832,2216],[3836,2216],[3836,2208],[3840,2208],[3840,2204],[3848,2204],[3848,2200],[3852,2200],[3852,2192],[3860,2192],[3860,2188],[3868,2188],[3868,2192],[3884,2192],[3884,2188],[3896,2188],[3896,2184],[3904,2184],[3904,2180],[3892,2180],[3892,2176],[3900,2176],[3900,2172],[3908,2172],[3908,2168],[3916,2168],[3916,2164],[3920,2164],[3920,2160],[3924,2160],[3924,2164],[3936,2164],[3936,2160],[3944,2160],[3944,2164],[3948,2164],[3948,2168],[3960,2168],[3960,2164],[3964,2164],[3964,2160],[3968,2160],[3968,2152],[3972,2152],[3972,2124],[3976,2124],[3976,2120],[3980,2120],[3980,2108],[3984,2108],[3984,2100],[3988,2100],[3988,2096],[4008,2096],[4008,2092],[4012,2092],[4012,2088],[4020,2088],[4020,2080],[4016,2080],[4016,2068],[4008,2068],[4008,2064],[4004,2064],[4004,2052],[4020,2052],[4020,2056],[4040,2056],[4040,2052],[4052,2052],[4052,2048],[4056,2048],[4056,2044],[4060,2044],[4060,2032],[4056,2032],[4056,2028],[4052,2028],[4052,2024],[4060,2024],[4060,2016],[4068,2016],[4068,2008],[4076,2008],[4076,2004],[4080,2004],[4080,1996],[4084,1996],[4084,1976],[4080,1976],[4080,1964],[4076,1964],[4076,1960],[4068,1960],[4068,1952],[4072,1952],[4072,1948],[4076,1948],[4076,1944],[4080,1944],[4080,1940],[4084,1940],[4084,1936],[4096,1936],[4096,1932],[4104,1932],[4104,1928],[4108,1928],[4108,1924],[4112,1924],[4112,1920],[4128,1920],[4128,1916],[4144,1916],[4144,1912],[4168,1912],[4184,1908]]]}},{"type":"Feature","properties":{"regionKey":"india_maurya_takshashila","settlement":"Takşila","country":"Maurya İmparatorluğu","component":"0-1"},"geometry":{"type":"Polygon","coordinates":[[[4220,2096],[4220,2100],[4216,2100],[4220,2096]]]}},{"type":"Feature","properties":{"regionKey":"india_maurya_pataliputra","settlement":"Pataliputra","country":"Maurya İmparatorluğu","component":"1-0"},"geometry":{"type":"Polygon","coordinates":[[[4536,2188],[4536,2192],[4552,2192],[4552,2196],[4556,2196],[4556,2200],[4552,2200],[4552,2204],[4564,2204],[4564,2208],[4572,2208],[4572,2212],[4576,2212],[4576,2216],[4580,2216],[4580,2220],[4592,2220],[4592,2224],[4596,2224],[4596,2220],[4600,2220],[4600,2224],[4604,2224],[4604,2228],[4608,2228],[4608,2232],[4612,2232],[4612,2240],[4624,2240],[4624,2236],[4644,2236],[4644,2244],[4648,2244],[4648,2248],[4644,2248],[4644,2252],[4652,2252],[4652,2256],[4656,2256],[4656,2260],[4664,2260],[4664,2264],[4672,2264],[4672,2268],[4676,2268],[4676,2264],[4688,2264],[4688,2268],[4684,2268],[4684,2276],[4688,2276],[4688,2280],[4692,2280],[4692,2276],[4712,2276],[4712,2280],[4720,2280],[4720,2288],[4724,2288],[4724,2292],[4728,2292],[4728,2284],[4732,2284],[4732,2288],[4740,2288],[4740,2292],[4748,2292],[4748,2284],[4760,2284],[4760,2288],[4772,2288],[4772,2292],[4808,2292],[4808,2288],[4820,2288],[4820,2284],[4828,2284],[4828,2340],[4832,2340],[4832,2384],[4836,2384],[4836,2408],[4840,2408],[4840,2428],[4844,2428],[4844,2444],[4848,2444],[4848,2456],[4852,2456],[4852,2472],[4856,2472],[4856,2480],[4860,2480],[4860,2492],[4864,2492],[4864,2504],[4868,2504],[4868,2512],[4872,2512],[4872,2520],[4876,2520],[4876,2532],[4880,2532],[4880,2540],[4884,2540],[4884,2548],[4888,2548],[4888,2564],[4880,2564],[4880,2568],[4872,2568],[4872,2564],[4876,2564],[4876,2560],[4872,2560],[4872,2564],[4868,2564],[4868,2568],[4860,2568],[4860,2564],[4848,2564],[4848,2560],[4844,2560],[4844,2564],[4836,2564],[4836,2560],[4804,2560],[4804,2556],[4764,2556],[4764,2552],[4684,2552],[4684,2556],[4656,2556],[4656,2560],[4640,2560],[4640,2564],[4624,2564],[4624,2568],[4616,2568],[4616,2572],[4604,2572],[4604,2576],[4596,2576],[4596,2580],[4588,2580],[4588,2584],[4584,2584],[4584,2588],[4576,2588],[4576,2592],[4572,2592],[4572,2596],[4564,2596],[4564,2600],[4560,2600],[4560,2604],[4556,2604],[4556,2608],[4548,2608],[4548,2612],[4544,2612],[4544,2616],[4540,2616],[4540,2620],[4536,2620],[4536,2624],[4528,2624],[4528,2628],[4520,2628],[4520,2632],[4512,2632],[4512,2636],[4500,2636],[4500,2640],[4492,2640],[4492,2644],[4484,2644],[4484,2632],[4480,2632],[4480,2612],[4476,2612],[4476,2596],[4472,2596],[4472,2576],[4468,2576],[4468,2556],[4464,2556],[4464,2536],[4460,2536],[4460,2520],[4456,2520],[4456,2508],[4452,2508],[4452,2492],[4448,2492],[4448,2480],[4444,2480],[4444,2468],[4440,2468],[4440,2456],[4436,2456],[4436,2444],[4432,2444],[4432,2424],[4436,2424],[4436,2412],[4440,2412],[4440,2404],[4444,2404],[4444,2392],[4448,2392],[4448,2380],[4452,2380],[4452,2368],[4456,2368],[4456,2356],[4460,2356],[4460,2340],[4464,2340],[4464,2328],[4468,2328],[4468,2312],[4472,2312],[4472,2292],[4476,2292],[4476,2276],[4480,2276],[4480,2268],[4484,2268],[4484,2256],[4488,2256],[4488,2248],[4492,2248],[4492,2240],[4496,2240],[4496,2228],[4500,2228],[4500,2220],[4504,2220],[4504,2212],[4508,2212],[4508,2208],[4512,2208],[4512,2204],[4516,2204],[4516,2200],[4520,2200],[4520,2192],[4528,2192],[4536,2188]]]}},{"type":"Feature","properties":{"regionKey":"india_maurya_pataliputra","settlement":"Pataliputra","country":"Maurya İmparatorluğu","component":"1-1"},"geometry":{"type":"Polygon","coordinates":[[[4800,2548],[4800,2552],[4804,2552],[4800,2548]]]}},{"type":"Feature","properties":{"regionKey":"india_maurya_pataliputra","settlement":"Pataliputra","country":"Maurya İmparatorluğu","component":"1-2"},"geometry":{"type":"Polygon","coordinates":[[[4808,2552],[4808,2556],[4812,2556],[4808,2552]]]}},{"type":"Feature","properties":{"regionKey":"india_maurya_pataliputra","settlement":"Pataliputra","country":"Maurya İmparatorluğu","component":"1-3"},"geometry":{"type":"Polygon","coordinates":[[[5028,3196],[5028,3200],[5024,3200],[5028,3196]]]}},{"type":"Feature","properties":{"regionKey":"india_maurya_pataliputra","settlement":"Pataliputra","country":"Maurya İmparatorluğu","component":"1-4"},"geometry":{"type":"Polygon","coordinates":[[[5032,3228],[5032,3232],[5028,3232],[5032,3228]]]}},{"type":"Feature","properties":{"regionKey":"india_maurya_pataliputra","settlement":"Pataliputra","country":"Maurya İmparatorluğu","component":"1-5"},"geometry":{"type":"Polygon","coordinates":[[[5040,3236],[5040,3244],[5044,3244],[5044,3248],[5040,3248],[5040,3256],[5036,3256],[5036,3248],[5032,3248],[5040,3236]]]}},{"type":"Feature","properties":{"regionKey":"india_maurya_ujjayini","settlement":"Ujjayini","country":"Maurya İmparatorluğu","component":"2-0"},"geometry":{"type":"Polygon","coordinates":[[[4184,2276],[4184,2280],[4188,2280],[4188,2288],[4192,2288],[4192,2292],[4196,2292],[4196,2300],[4200,2300],[4200,2304],[4204,2304],[4204,2308],[4208,2308],[4208,2316],[4212,2316],[4212,2320],[4216,2320],[4216,2324],[4220,2324],[4220,2328],[4224,2328],[4224,2336],[4228,2336],[4228,2340],[4232,2340],[4232,2344],[4236,2344],[4236,2348],[4240,2348],[4240,2352],[4244,2352],[4244,2356],[4248,2356],[4248,2360],[4252,2360],[4252,2364],[4256,2364],[4256,2368],[4260,2368],[4260,2372],[4264,2372],[4264,2376],[4268,2376],[4268,2380],[4276,2380],[4276,2384],[4280,2384],[4280,2388],[4284,2388],[4284,2392],[4292,2392],[4292,2396],[4296,2396],[4296,2400],[4304,2400],[4304,2404],[4312,2404],[4312,2408],[4320,2408],[4320,2412],[4328,2412],[4328,2416],[4340,2416],[4340,2420],[4352,2420],[4352,2424],[4368,2424],[4368,2428],[4388,2428],[4388,2432],[4432,2432],[4432,2444],[4436,2444],[4436,2456],[4440,2456],[4440,2468],[4444,2468],[4444,2480],[4448,2480],[4448,2492],[4452,2492],[4452,2508],[4456,2508],[4456,2520],[4460,2520],[4460,2536],[4464,2536],[4464,2556],[4468,2556],[4468,2576],[4472,2576],[4472,2596],[4476,2596],[4476,2612],[4480,2612],[4480,2632],[4484,2632],[4484,2648],[4472,2648],[4472,2652],[4460,2652],[4460,2656],[4452,2656],[4452,2660],[4444,2660],[4444,2664],[4432,2664],[4432,2668],[4424,2668],[4424,2672],[4416,2672],[4416,2676],[4408,2676],[4408,2680],[4400,2680],[4400,2684],[4392,2684],[4392,2688],[4388,2688],[4388,2684],[4384,2684],[4384,2680],[4376,2680],[4376,2676],[4368,2676],[4368,2672],[4360,2672],[4360,2668],[4352,2668],[4352,2664],[4344,2664],[4344,2660],[4336,2660],[4336,2656],[4324,2656],[4324,2652],[4308,2652],[4308,2648],[4292,2648],[4292,2644],[4252,2644],[4252,2640],[4224,2640],[4224,2644],[4184,2644],[4184,2648],[4164,2648],[4164,2652],[4148,2652],[4148,2656],[4136,2656],[4136,2660],[4124,2660],[4124,2664],[4116,2664],[4116,2660],[4112,2660],[4112,2652],[4108,2652],[4108,2648],[4112,2648],[4112,2644],[4108,2644],[4108,2640],[4100,2640],[4100,2632],[4108,2632],[4108,2624],[4112,2624],[4112,2620],[4100,2620],[4100,2612],[4104,2612],[4104,2608],[4100,2608],[4100,2596],[4112,2596],[4112,2592],[4100,2592],[4100,2596],[4096,2596],[4096,2588],[4092,2588],[4092,2600],[4088,2600],[4088,2604],[4084,2604],[4084,2608],[4076,2608],[4076,2612],[4080,2612],[4080,2616],[4084,2616],[4084,2620],[4088,2620],[4088,2628],[4084,2628],[4084,2636],[4080,2636],[4080,2644],[4076,2644],[4076,2648],[4068,2648],[4068,2652],[4048,2652],[4048,2656],[4052,2656],[4052,2660],[4044,2660],[4044,2652],[4024,2652],[4024,2648],[4020,2648],[4020,2640],[4012,2640],[4012,2644],[4008,2644],[4008,2636],[4020,2636],[4020,2632],[4024,2632],[4024,2624],[4020,2624],[4020,2628],[4016,2628],[4016,2632],[4012,2632],[4012,2628],[4008,2628],[4008,2624],[4004,2624],[4004,2628],[4000,2628],[4000,2632],[3992,2632],[3992,2628],[3988,2628],[3988,2624],[3976,2624],[3976,2628],[3980,2628],[3980,2644],[3984,2644],[3984,2648],[3980,2648],[3980,2644],[3976,2644],[3976,2636],[3968,2636],[3968,2632],[3964,2632],[3964,2628],[3960,2628],[3960,2624],[3956,2624],[3956,2620],[3952,2620],[3952,2616],[3948,2616],[3948,2612],[3944,2612],[3944,2608],[3940,2608],[3940,2604],[3936,2604],[3936,2600],[3940,2600],[3940,2592],[3944,2592],[3944,2596],[3948,2596],[3948,2600],[3960,2600],[3960,2596],[3972,2596],[3972,2592],[3980,2592],[3980,2588],[3992,2588],[3992,2584],[3996,2584],[3996,2580],[4000,2580],[4000,2572],[4004,2572],[4004,2568],[4008,2568],[4008,2564],[4012,2564],[4012,2560],[4004,2560],[4004,2568],[3988,2568],[3988,2572],[3976,2572],[3976,2576],[3948,2576],[3948,2572],[3940,2572],[3940,2568],[3932,2568],[3932,2564],[3924,2564],[3924,2552],[3916,2552],[3916,2548],[3920,2548],[3920,2544],[3916,2544],[3916,2540],[3920,2540],[3920,2536],[3916,2536],[3916,2540],[3912,2540],[3912,2544],[3904,2544],[3904,2540],[3908,2540],[3908,2536],[3896,2536],[3896,2532],[3884,2532],[3884,2536],[3880,2536],[3880,2532],[3876,2532],[3876,2528],[3872,2528],[3872,2524],[3868,2524],[3868,2516],[3864,2516],[3864,2500],[3860,2500],[3860,2496],[3864,2496],[3864,2492],[3856,2492],[3856,2488],[3840,2488],[3840,2476],[3844,2476],[3844,2472],[3840,2472],[3840,2468],[3836,2468],[3836,2460],[3832,2460],[3832,2464],[3828,2464],[3828,2460],[3832,2460],[3832,2456],[3828,2456],[3828,2460],[3820,2460],[3820,2464],[3800,2464],[3800,2468],[3772,2468],[3772,2472],[3748,2472],[3748,2476],[3728,2476],[3728,2472],[3724,2472],[3724,2468],[3720,2468],[3720,2472],[3696,2472],[3696,2480],[3648,2480],[3648,2484],[3644,2484],[3644,2488],[3640,2488],[3640,2484],[3632,2484],[3632,2488],[3624,2488],[3624,2492],[3620,2492],[3620,2496],[3616,2496],[3616,2488],[3608,2488],[3608,2480],[3612,2480],[3612,2460],[3616,2460],[3616,2452],[3620,2452],[3620,2436],[3632,2436],[3632,2432],[3640,2432],[3640,2428],[3644,2428],[3644,2424],[3648,2424],[3648,2420],[3664,2420],[3664,2416],[3684,2416],[3684,2408],[3696,2408],[3696,2404],[3720,2404],[3720,2400],[3744,2400],[3744,2396],[3772,2396],[3772,2392],[3800,2392],[3800,2388],[3828,2388],[3828,2384],[3848,2384],[3848,2380],[3868,2380],[3868,2376],[3884,2376],[3884,2372],[3900,2372],[3900,2368],[3916,2368],[3916,2364],[3928,2364],[3928,2360],[3940,2360],[3940,2356],[3952,2356],[3952,2352],[3964,2352],[3964,2348],[3976,2348],[3976,2344],[3984,2344],[3984,2340],[3996,2340],[3996,2336],[4008,2336],[4008,2332],[4016,2332],[4016,2328],[4028,2328],[4028,2324],[4036,2324],[4036,2320],[4048,2320],[4048,2316],[4060,2316],[4060,2312],[4068,2312],[4068,2308],[4080,2308],[4080,2304],[4092,2304],[4092,2300],[4104,2300],[4104,2296],[4116,2296],[4116,2292],[4128,2292],[4128,2288],[4144,2288],[4144,2284],[4156,2284],[4156,2280],[4176,2280],[4184,2276]]]}},{"type":"Feature","properties":{"regionKey":"india_maurya_ujjayini","settlement":"Ujjayini","country":"Maurya İmparatorluğu","component":"2-1"},"geometry":{"type":"Polygon","coordinates":[[[3816,2456],[3816,2460],[3820,2460],[3816,2456]]]}},{"type":"Feature","properties":{"regionKey":"india_maurya_ujjayini","settlement":"Ujjayini","country":"Maurya İmparatorluğu","component":"2-2"},"geometry":{"type":"Polygon","coordinates":[[[3924,2532],[3924,2536],[3928,2536],[3924,2532]]]}},{"type":"Feature","properties":{"regionKey":"india_maurya_ujjayini","settlement":"Ujjayini","country":"Maurya İmparatorluğu","component":"2-3"},"geometry":{"type":"Polygon","coordinates":[[[4016,2620],[4016,2624],[4020,2624],[4016,2620]]]}},{"type":"Feature","properties":{"regionKey":"india_maurya_ujjayini","settlement":"Ujjayini","country":"Maurya İmparatorluğu","component":"2-4"},"geometry":{"type":"Polygon","coordinates":[[[4004,2640],[4004,2648],[4000,2648],[4004,2640]]]}},{"type":"Feature","properties":{"regionKey":"india_maurya_ujjayini","settlement":"Ujjayini","country":"Maurya İmparatorluğu","component":"2-5"},"geometry":{"type":"Polygon","coordinates":[[[4104,2644],[4104,2648],[4100,2648],[4104,2644]]]}},{"type":"Feature","properties":{"regionKey":"india_maurya_ujjayini","settlement":"Ujjayini","country":"Maurya İmparatorluğu","component":"2-6"},"geometry":{"type":"Polygon","coordinates":[[[4016,2656],[4016,2660],[4020,2660],[4020,2668],[4024,2668],[4024,2672],[4016,2672],[4016,2668],[4008,2668],[4008,2660],[4012,2660],[4016,2656]]]}},{"type":"Feature","properties":{"regionKey":"india_kalinga_tosali","settlement":"Tosali","country":"Kalinga","component":"3-0"},"geometry":{"type":"Polygon","coordinates":[[[4764,2552],[4764,2556],[4804,2556],[4804,2572],[4796,2572],[4796,2576],[4792,2576],[4792,2580],[4780,2580],[4780,2584],[4764,2584],[4764,2588],[4760,2588],[4760,2592],[4756,2592],[4756,2596],[4752,2596],[4752,2600],[4748,2600],[4748,2612],[4752,2612],[4752,2632],[4748,2632],[4748,2636],[4744,2636],[4744,2644],[4740,2644],[4740,2648],[4736,2648],[4736,2652],[4732,2652],[4732,2656],[4728,2656],[4728,2660],[4724,2660],[4724,2664],[4716,2664],[4716,2668],[4704,2668],[4704,2672],[4692,2672],[4692,2676],[4688,2676],[4688,2668],[4680,2668],[4680,2672],[4676,2672],[4676,2676],[4672,2676],[4672,2680],[4676,2680],[4676,2684],[4672,2684],[4672,2680],[4668,2680],[4668,2692],[4656,2692],[4656,2688],[4648,2688],[4648,2684],[4644,2684],[4644,2680],[4636,2680],[4636,2676],[4628,2676],[4628,2672],[4620,2672],[4620,2668],[4616,2668],[4616,2664],[4608,2664],[4608,2660],[4600,2660],[4600,2656],[4592,2656],[4592,2652],[4584,2652],[4584,2648],[4580,2648],[4580,2644],[4572,2644],[4572,2640],[4564,2640],[4564,2636],[4556,2636],[4556,2632],[4548,2632],[4548,2628],[4540,2628],[4540,2624],[4536,2624],[4536,2620],[4540,2620],[4540,2616],[4544,2616],[4544,2612],[4548,2612],[4548,2608],[4556,2608],[4556,2604],[4560,2604],[4560,2600],[4564,2600],[4564,2596],[4572,2596],[4572,2592],[4576,2592],[4576,2588],[4584,2588],[4584,2584],[4588,2584],[4588,2580],[4596,2580],[4596,2576],[4604,2576],[4604,2572],[4616,2572],[4616,2568],[4624,2568],[4624,2564],[4640,2564],[4640,2560],[4656,2560],[4656,2556],[4684,2556],[4764,2552]]]}},{"type":"Feature","properties":{"regionKey":"india_kalinga_tosali","settlement":"Tosali","country":"Kalinga","component":"3-1"},"geometry":{"type":"Polygon","coordinates":[[[4836,2560],[4836,2564],[4848,2564],[4848,2572],[4852,2572],[4852,2576],[4844,2576],[4844,2572],[4840,2572],[4840,2580],[4844,2580],[4844,2584],[4840,2584],[4840,2580],[4836,2580],[4836,2564],[4824,2564],[4824,2580],[4828,2580],[4828,2584],[4824,2584],[4824,2580],[4816,2580],[4816,2584],[4812,2584],[4812,2576],[4808,2576],[4808,2580],[4804,2580],[4804,2576],[4808,2576],[4808,2568],[4812,2568],[4836,2560]]]}},{"type":"Feature","properties":{"regionKey":"india_kalinga_tosali","settlement":"Tosali","country":"Kalinga","component":"3-2"},"geometry":{"type":"Polygon","coordinates":[[[4860,2564],[4860,2576],[4856,2576],[4856,2572],[4852,2572],[4860,2564]]]}},{"type":"Feature","properties":{"regionKey":"india_kalinga_tosali","settlement":"Tosali","country":"Kalinga","component":"3-3"},"geometry":{"type":"Polygon","coordinates":[[[4868,2568],[4868,2572],[4864,2572],[4868,2568]]]}},{"type":"Feature","properties":{"regionKey":"india_kalinga_tosali","settlement":"Tosali","country":"Kalinga","component":"3-4"},"geometry":{"type":"Polygon","coordinates":[[[4876,2568],[4876,2572],[4872,2572],[4876,2568]]]}},{"type":"Feature","properties":{"regionKey":"india_kalinga_tosali","settlement":"Tosali","country":"Kalinga","component":"3-5"},"geometry":{"type":"Polygon","coordinates":[[[4832,2572],[4832,2580],[4828,2580],[4832,2572]]]}},{"type":"Feature","properties":{"regionKey":"india_kalinga_tosali","settlement":"Tosali","country":"Kalinga","component":"3-6"},"geometry":{"type":"Polygon","coordinates":[[[4716,2656],[4716,2660],[4720,2660],[4716,2656]]]}},{"type":"Feature","properties":{"regionKey":"india_kalinga_tosali","settlement":"Tosali","country":"Kalinga","component":"3-7"},"geometry":{"type":"Polygon","coordinates":[[[5016,2944],[5016,2964],[5008,2964],[5008,2968],[5012,2968],[5012,2992],[5008,2992],[5008,3004],[5004,3004],[5004,3012],[5000,3012],[5000,3028],[4996,3028],[4996,3032],[5000,3032],[5000,3036],[4992,3036],[4992,3024],[4988,3024],[4988,3020],[4992,3020],[4992,3016],[4996,3016],[4996,3004],[5000,3004],[5000,2976],[5004,2976],[5004,2964],[5008,2964],[5016,2944]]]}},{"type":"Feature","properties":{"regionKey":"india_kalinga_tosali","settlement":"Tosali","country":"Kalinga","component":"3-8"},"geometry":{"type":"Polygon","coordinates":[[[5000,2972],[5000,2976],[4996,2976],[5000,2972]]]}},{"type":"Feature","properties":{"regionKey":"india_kalinga_tosali","settlement":"Tosali","country":"Kalinga","component":"3-9"},"geometry":{"type":"Polygon","coordinates":[[[5016,3004],[5016,3008],[5012,3008],[5016,3004]]]}},{"type":"Feature","properties":{"regionKey":"india_kalinga_tosali","settlement":"Tosali","country":"Kalinga","component":"3-10"},"geometry":{"type":"Polygon","coordinates":[[[5012,3012],[5012,3016],[5008,3016],[5012,3012]]]}},{"type":"Feature","properties":{"regionKey":"india_kalinga_tosali","settlement":"Tosali","country":"Kalinga","component":"3-11"},"geometry":{"type":"Polygon","coordinates":[[[4996,3040],[4996,3044],[4992,3044],[4996,3040]]]}},{"type":"Feature","properties":{"regionKey":"india_kalinga_tosali","settlement":"Tosali","country":"Kalinga","component":"3-12"},"geometry":{"type":"Polygon","coordinates":[[[4988,3068],[4988,3084],[4980,3084],[4980,3072],[4984,3072],[4988,3068]]]}},{"type":"Feature","properties":{"regionKey":"india_kalinga_tosali","settlement":"Tosali","country":"Kalinga","component":"3-13"},"geometry":{"type":"Polygon","coordinates":[[[4996,3144],[4996,3148],[4992,3148],[4996,3144]]]}},{"type":"Feature","properties":{"regionKey":"india_kalinga_tosali","settlement":"Tosali","country":"Kalinga","component":"3-14"},"geometry":{"type":"Polygon","coordinates":[[[5008,3184],[5008,3188],[5012,3188],[5012,3192],[5008,3192],[5008,3188],[5004,3188],[5008,3184]]]}},{"type":"Feature","properties":{"regionKey":"india_kalinga_tosali","settlement":"Tosali","country":"Kalinga","component":"3-15"},"geometry":{"type":"Polygon","coordinates":[[[5028,3188],[5028,3196],[5024,3196],[5028,3188]]]}},{"type":"Feature","properties":{"regionKey":"india_kalinga_tosali","settlement":"Tosali","country":"Kalinga","component":"3-16"},"geometry":{"type":"Polygon","coordinates":[[[5024,3200],[5024,3204],[5016,3204],[5024,3200]]]}},{"type":"Feature","properties":{"regionKey":"india_kalinga_dantapura","settlement":"Dantapura","country":"Kalinga","component":"4-0"},"geometry":{"type":"Polygon","coordinates":[[[4540,2624],[4540,2628],[4548,2628],[4548,2632],[4556,2632],[4556,2636],[4564,2636],[4564,2640],[4572,2640],[4572,2644],[4580,2644],[4580,2648],[4584,2648],[4584,2652],[4592,2652],[4592,2656],[4600,2656],[4600,2660],[4608,2660],[4608,2664],[4616,2664],[4616,2668],[4620,2668],[4620,2672],[4628,2672],[4628,2676],[4636,2676],[4636,2680],[4644,2680],[4644,2684],[4648,2684],[4648,2688],[4656,2688],[4656,2692],[4664,2692],[4664,2696],[4660,2696],[4660,2700],[4656,2700],[4656,2704],[4648,2704],[4648,2716],[4644,2716],[4644,2720],[4640,2720],[4640,2724],[4636,2724],[4636,2728],[4632,2728],[4632,2732],[4628,2732],[4628,2736],[4624,2736],[4624,2740],[4620,2740],[4620,2748],[4612,2748],[4612,2752],[4604,2752],[4604,2756],[4596,2756],[4596,2760],[4592,2760],[4592,2764],[4588,2764],[4588,2772],[4584,2772],[4584,2776],[4580,2776],[4580,2780],[4576,2780],[4576,2784],[4568,2784],[4568,2788],[4564,2788],[4564,2792],[4552,2792],[4552,2788],[4548,2788],[4548,2780],[4544,2780],[4544,2768],[4540,2768],[4540,2760],[4536,2760],[4536,2752],[4532,2752],[4532,2744],[4528,2744],[4528,2736],[4524,2736],[4524,2728],[4520,2728],[4520,2720],[4516,2720],[4516,2708],[4512,2708],[4512,2700],[4508,2700],[4508,2692],[4504,2692],[4504,2684],[4500,2684],[4500,2672],[4496,2672],[4496,2664],[4492,2664],[4492,2656],[4488,2656],[4488,2644],[4492,2644],[4492,2640],[4500,2640],[4500,2636],[4512,2636],[4512,2632],[4520,2632],[4520,2628],[4528,2628],[4540,2624]]]}},{"type":"Feature","properties":{"regionKey":"india_satavahana_pratishthana","settlement":"Pratişthana","country":"Satavahanalar","component":"5-0"},"geometry":{"type":"Polygon","coordinates":[[[4252,2640],[4252,2644],[4292,2644],[4292,2648],[4308,2648],[4308,2652],[4324,2652],[4324,2656],[4336,2656],[4336,2660],[4344,2660],[4344,2664],[4352,2664],[4352,2668],[4360,2668],[4360,2672],[4368,2672],[4368,2676],[4376,2676],[4376,2680],[4384,2680],[4384,2684],[4388,2684],[4388,2692],[4384,2692],[4384,2700],[4380,2700],[4380,2704],[4376,2704],[4376,2712],[4372,2712],[4372,2720],[4368,2720],[4368,2724],[4364,2724],[4364,2732],[4360,2732],[4360,2740],[4356,2740],[4356,2744],[4352,2744],[4352,2752],[4348,2752],[4348,2760],[4344,2760],[4344,2764],[4340,2764],[4340,2772],[4336,2772],[4336,2780],[4332,2780],[4332,2788],[4328,2788],[4328,2792],[4324,2792],[4324,2800],[4320,2800],[4320,2808],[4316,2808],[4316,2812],[4312,2812],[4312,2820],[4308,2820],[4308,2824],[4304,2824],[4304,2832],[4300,2832],[4300,2840],[4296,2840],[4296,2844],[4292,2844],[4292,2852],[4288,2852],[4288,2856],[4284,2856],[4284,2864],[4280,2864],[4280,2868],[4276,2868],[4276,2876],[4272,2876],[4272,2880],[4268,2880],[4268,2884],[4264,2884],[4264,2892],[4260,2892],[4260,2896],[4256,2896],[4256,2904],[4252,2904],[4252,2908],[4248,2908],[4248,2912],[4244,2912],[4244,2920],[4204,2920],[4204,2924],[4148,2924],[4148,2912],[4144,2912],[4144,2904],[4140,2904],[4140,2896],[4136,2896],[4136,2884],[4132,2884],[4132,2880],[4128,2880],[4128,2864],[4124,2864],[4124,2860],[4128,2860],[4128,2852],[4124,2852],[4124,2828],[4120,2828],[4120,2808],[4116,2808],[4116,2792],[4112,2792],[4112,2780],[4116,2780],[4116,2776],[4112,2776],[4112,2772],[4108,2772],[4108,2768],[4112,2768],[4112,2764],[4108,2764],[4108,2752],[4112,2752],[4112,2756],[4116,2756],[4116,2752],[4112,2752],[4112,2744],[4116,2744],[4116,2740],[4112,2740],[4112,2744],[4108,2744],[4108,2748],[4104,2748],[4104,2744],[4108,2744],[4108,2732],[4116,2732],[4116,2728],[4108,2728],[4108,2732],[4104,2732],[4104,2708],[4100,2708],[4100,2700],[4104,2700],[4104,2684],[4108,2684],[4108,2676],[4112,2676],[4112,2668],[4116,2668],[4116,2664],[4124,2664],[4124,2660],[4136,2660],[4136,2656],[4148,2656],[4148,2652],[4164,2652],[4164,2648],[4184,2648],[4184,2644],[4224,2644],[4252,2640]]]}},{"type":"Feature","properties":{"regionKey":"india_satavahana_amaravati","settlement":"Amaravati","country":"Satavahanalar","component":"6-0"},"geometry":{"type":"Polygon","coordinates":[[[4488,2644],[4488,2656],[4492,2656],[4492,2664],[4496,2664],[4496,2672],[4500,2672],[4500,2684],[4504,2684],[4504,2692],[4508,2692],[4508,2700],[4512,2700],[4512,2708],[4516,2708],[4516,2720],[4520,2720],[4520,2728],[4524,2728],[4524,2736],[4528,2736],[4528,2744],[4532,2744],[4532,2752],[4536,2752],[4536,2760],[4540,2760],[4540,2768],[4544,2768],[4544,2780],[4548,2780],[4548,2788],[4552,2788],[4552,2796],[4548,2796],[4548,2800],[4540,2800],[4540,2804],[4536,2804],[4536,2808],[4532,2808],[4532,2820],[4536,2820],[4536,2828],[4532,2828],[4532,2832],[4528,2832],[4528,2836],[4520,2836],[4520,2840],[4512,2840],[4512,2844],[4484,2844],[4484,2852],[4480,2852],[4480,2864],[4476,2864],[4476,2868],[4448,2868],[4448,2872],[4444,2872],[4444,2876],[4440,2876],[4440,2880],[4436,2880],[4436,2888],[4432,2888],[4432,2896],[4428,2896],[4428,2924],[4432,2924],[4432,2944],[4428,2944],[4428,2956],[4432,2956],[4432,2964],[4436,2964],[4436,2968],[4432,2968],[4432,2972],[4424,2972],[4424,2976],[4428,2976],[4428,2980],[4408,2980],[4408,2976],[4356,2976],[4356,2972],[4308,2972],[4308,2968],[4296,2968],[4296,2964],[4280,2964],[4280,2960],[4276,2960],[4276,2956],[4272,2956],[4272,2952],[4268,2952],[4268,2948],[4264,2948],[4264,2944],[4260,2944],[4260,2940],[4256,2940],[4256,2936],[4252,2936],[4252,2932],[4248,2932],[4248,2928],[4244,2928],[4244,2912],[4248,2912],[4248,2908],[4252,2908],[4252,2904],[4256,2904],[4256,2896],[4260,2896],[4260,2892],[4264,2892],[4264,2884],[4268,2884],[4268,2880],[4272,2880],[4272,2876],[4276,2876],[4276,2868],[4280,2868],[4280,2864],[4284,2864],[4284,2856],[4288,2856],[4288,2852],[4292,2852],[4292,2844],[4296,2844],[4296,2840],[4300,2840],[4300,2832],[4304,2832],[4304,2824],[4308,2824],[4308,2820],[4312,2820],[4312,2812],[4316,2812],[4316,2808],[4320,2808],[4320,2800],[4324,2800],[4324,2792],[4328,2792],[4328,2788],[4332,2788],[4332,2780],[4336,2780],[4336,2772],[4340,2772],[4340,2764],[4344,2764],[4344,2760],[4348,2760],[4348,2752],[4352,2752],[4352,2744],[4356,2744],[4356,2740],[4360,2740],[4360,2732],[4364,2732],[4364,2724],[4368,2724],[4368,2720],[4372,2720],[4372,2712],[4376,2712],[4376,2704],[4380,2704],[4380,2700],[4384,2700],[4384,2692],[4388,2692],[4388,2688],[4392,2688],[4392,2684],[4400,2684],[4400,2680],[4408,2680],[4408,2676],[4416,2676],[4416,2672],[4424,2672],[4424,2668],[4432,2668],[4432,2664],[4444,2664],[4444,2660],[4452,2660],[4452,2656],[4460,2656],[4460,2652],[4472,2652],[4472,2648],[4484,2648],[4488,2644]]]}},{"type":"Feature","properties":{"regionKey":"india_yaudheya_rohitaka","settlement":"Rohitaka","country":"Yaudheya","component":"7-0"},"geometry":{"type":"Polygon","coordinates":[[[4208,2248],[4208,2252],[4228,2252],[4228,2256],[4248,2256],[4248,2260],[4272,2260],[4272,2264],[4292,2264],[4292,2268],[4316,2268],[4316,2272],[4344,2272],[4344,2276],[4384,2276],[4384,2280],[4460,2280],[4460,2276],[4476,2276],[4476,2292],[4472,2292],[4472,2312],[4468,2312],[4468,2328],[4464,2328],[4464,2340],[4460,2340],[4460,2356],[4456,2356],[4456,2368],[4452,2368],[4452,2380],[4448,2380],[4448,2392],[4444,2392],[4444,2404],[4440,2404],[4440,2412],[4436,2412],[4436,2424],[4432,2424],[4432,2432],[4388,2432],[4388,2428],[4368,2428],[4368,2424],[4352,2424],[4352,2420],[4340,2420],[4340,2416],[4328,2416],[4328,2412],[4320,2412],[4320,2408],[4312,2408],[4312,2404],[4304,2404],[4304,2400],[4296,2400],[4296,2396],[4292,2396],[4292,2392],[4284,2392],[4284,2388],[4280,2388],[4280,2384],[4276,2384],[4276,2380],[4268,2380],[4268,2376],[4264,2376],[4264,2372],[4260,2372],[4260,2368],[4256,2368],[4256,2364],[4252,2364],[4252,2360],[4248,2360],[4248,2356],[4244,2356],[4244,2352],[4240,2352],[4240,2348],[4236,2348],[4236,2344],[4232,2344],[4232,2340],[4228,2340],[4228,2336],[4224,2336],[4224,2328],[4220,2328],[4220,2324],[4216,2324],[4216,2320],[4212,2320],[4212,2316],[4208,2316],[4208,2308],[4204,2308],[4204,2304],[4200,2304],[4200,2300],[4196,2300],[4196,2292],[4192,2292],[4192,2288],[4188,2288],[4188,2280],[4184,2280],[4184,2272],[4188,2272],[4188,2264],[4192,2264],[4192,2260],[4196,2260],[4196,2252],[4200,2252],[4208,2248]]]}},{"type":"Feature","properties":{"regionKey":"india_kuninda_srughna","settlement":"Srughna","country":"Kuninda","component":"8-0"},"geometry":{"type":"Polygon","coordinates":[[[4368,2088],[4368,2096],[4376,2096],[4376,2092],[4384,2092],[4384,2088],[4388,2088],[4388,2096],[4384,2096],[4384,2100],[4388,2100],[4388,2108],[4392,2108],[4392,2112],[4388,2112],[4388,2116],[4392,2116],[4392,2120],[4396,2120],[4396,2124],[4400,2124],[4400,2140],[4404,2140],[4404,2144],[4400,2144],[4400,2148],[4404,2148],[4404,2152],[4400,2152],[4400,2156],[4408,2156],[4408,2164],[4432,2164],[4432,2168],[4452,2168],[4452,2172],[4456,2172],[4456,2180],[4464,2180],[4464,2184],[4472,2184],[4472,2188],[4484,2188],[4484,2192],[4492,2192],[4492,2196],[4500,2196],[4500,2200],[4504,2200],[4504,2208],[4508,2208],[4508,2212],[4504,2212],[4504,2220],[4500,2220],[4500,2228],[4496,2228],[4496,2240],[4492,2240],[4492,2248],[4488,2248],[4488,2256],[4484,2256],[4484,2268],[4480,2268],[4480,2276],[4460,2276],[4460,2280],[4384,2280],[4384,2276],[4344,2276],[4344,2272],[4316,2272],[4316,2268],[4292,2268],[4292,2264],[4272,2264],[4272,2260],[4248,2260],[4248,2256],[4228,2256],[4228,2252],[4208,2252],[4208,2248],[4204,2248],[4204,2240],[4208,2240],[4208,2232],[4212,2232],[4212,2228],[4216,2228],[4216,2220],[4220,2220],[4220,2216],[4224,2216],[4224,2208],[4228,2208],[4228,2204],[4232,2204],[4232,2200],[4236,2200],[4236,2192],[4240,2192],[4240,2188],[4244,2188],[4244,2184],[4248,2184],[4248,2180],[4252,2180],[4252,2176],[4256,2176],[4256,2172],[4260,2172],[4260,2168],[4264,2168],[4264,2164],[4268,2164],[4268,2160],[4272,2160],[4272,2156],[4276,2156],[4276,2152],[4280,2152],[4280,2148],[4288,2148],[4288,2144],[4292,2144],[4292,2140],[4296,2140],[4296,2136],[4300,2136],[4300,2132],[4308,2132],[4308,2128],[4312,2128],[4312,2124],[4316,2124],[4316,2120],[4324,2120],[4324,2116],[4328,2116],[4328,2112],[4336,2112],[4336,2108],[4340,2108],[4340,2104],[4348,2104],[4348,2100],[4352,2100],[4352,2096],[4360,2096],[4360,2092],[4364,2092],[4368,2088]]]}},{"type":"Feature","properties":{"regionKey":"india_kamarupa_pragjyotisha","settlement":"Pragjyotişa","country":"Kamarupa","component":"9-0"},"geometry":{"type":"Polygon","coordinates":[[[5176,2248],[5176,2252],[5192,2252],[5192,2256],[5196,2256],[5196,2252],[5200,2252],[5200,2256],[5208,2256],[5208,2260],[5212,2260],[5212,2264],[5224,2264],[5224,2268],[5228,2268],[5228,2272],[5220,2272],[5220,2288],[5224,2288],[5224,2292],[5228,2292],[5228,2300],[5220,2300],[5220,2296],[5216,2296],[5216,2292],[5212,2292],[5212,2288],[5204,2288],[5204,2292],[5192,2292],[5192,2296],[5180,2296],[5180,2300],[5176,2300],[5176,2304],[5172,2304],[5172,2308],[5168,2308],[5168,2312],[5164,2312],[5164,2316],[5156,2316],[5156,2320],[5152,2320],[5152,2324],[5140,2324],[5140,2328],[5136,2328],[5136,2332],[5132,2332],[5132,2336],[5136,2336],[5136,2340],[5132,2340],[5132,2348],[5136,2348],[5136,2360],[5128,2360],[5128,2364],[5132,2364],[5132,2368],[5128,2368],[5128,2372],[5124,2372],[5124,2380],[5116,2380],[5116,2384],[5112,2384],[5112,2388],[5108,2388],[5108,2396],[5112,2396],[5112,2400],[5116,2400],[5116,2404],[5112,2404],[5112,2412],[5108,2412],[5108,2420],[5104,2420],[5104,2424],[5100,2424],[5100,2432],[5096,2432],[5096,2440],[5092,2440],[5092,2448],[5088,2448],[5088,2460],[5084,2460],[5084,2456],[5068,2456],[5068,2452],[5064,2452],[5064,2456],[5056,2456],[5056,2452],[5048,2452],[5048,2456],[5052,2456],[5052,2468],[5056,2468],[5056,2472],[5052,2472],[5052,2496],[5048,2496],[5048,2500],[5040,2500],[5040,2512],[5036,2512],[5036,2528],[5040,2528],[5040,2536],[5036,2536],[5036,2540],[5032,2540],[5032,2544],[5028,2544],[5028,2552],[5024,2552],[5024,2544],[5016,2544],[5016,2548],[5012,2548],[5012,2584],[5008,2584],[5008,2580],[5000,2580],[5000,2576],[4996,2576],[4996,2580],[4992,2580],[4992,2592],[4996,2592],[4996,2604],[4992,2604],[4992,2596],[4988,2596],[4988,2592],[4984,2592],[4984,2588],[4988,2588],[4988,2584],[4984,2584],[4984,2576],[4980,2576],[4980,2564],[4976,2564],[4976,2556],[4980,2556],[4980,2544],[4976,2544],[4976,2532],[4972,2532],[4972,2524],[4968,2524],[4968,2520],[4964,2520],[4964,2516],[4956,2516],[4956,2520],[4948,2520],[4948,2524],[4952,2524],[4952,2528],[4936,2528],[4936,2524],[4932,2524],[4932,2516],[4928,2516],[4928,2508],[4924,2508],[4924,2512],[4920,2512],[4920,2516],[4924,2516],[4924,2520],[4928,2520],[4928,2528],[4932,2528],[4932,2552],[4928,2552],[4928,2556],[4924,2556],[4924,2544],[4928,2544],[4928,2536],[4924,2536],[4924,2544],[4920,2544],[4920,2548],[4916,2548],[4916,2552],[4912,2552],[4912,2556],[4916,2556],[4916,2560],[4920,2560],[4920,2564],[4916,2564],[4916,2560],[4912,2560],[4912,2564],[4896,2564],[4896,2556],[4892,2556],[4892,2548],[4884,2548],[4884,2540],[4880,2540],[4880,2532],[4876,2532],[4876,2520],[4872,2520],[4872,2512],[4868,2512],[4868,2504],[4864,2504],[4864,2492],[4860,2492],[4860,2480],[4856,2480],[4856,2472],[4852,2472],[4852,2456],[4848,2456],[4848,2444],[4844,2444],[4844,2428],[4840,2428],[4840,2408],[4836,2408],[4836,2384],[4832,2384],[4832,2340],[4828,2340],[4828,2284],[4836,2284],[4836,2280],[4840,2280],[4840,2276],[4844,2276],[4844,2280],[4852,2280],[4852,2300],[4848,2300],[4848,2308],[4852,2308],[4852,2312],[4860,2312],[4860,2300],[4864,2300],[4864,2296],[4868,2296],[4868,2292],[4872,2292],[4872,2288],[4876,2288],[4876,2284],[4880,2284],[4880,2276],[4888,2276],[4888,2272],[4896,2272],[4896,2268],[4900,2268],[4900,2264],[4908,2264],[4908,2260],[4912,2260],[4912,2264],[4916,2264],[4916,2260],[4920,2260],[4920,2264],[4936,2264],[4936,2268],[4928,2268],[4928,2272],[4948,2272],[4948,2276],[4960,2276],[4960,2272],[4972,2272],[4972,2276],[4980,2276],[4980,2288],[4976,2288],[4976,2292],[4980,2292],[4980,2296],[4984,2296],[4984,2300],[4988,2300],[4988,2296],[4996,2296],[4996,2300],[5000,2300],[5000,2308],[4996,2308],[4996,2316],[5000,2316],[5000,2324],[5016,2324],[5016,2320],[5028,2320],[5028,2324],[5032,2324],[5032,2320],[5040,2320],[5040,2324],[5048,2324],[5048,2320],[5068,2320],[5068,2316],[5076,2316],[5076,2308],[5080,2308],[5080,2304],[5084,2304],[5084,2300],[5088,2300],[5088,2296],[5092,2296],[5092,2292],[5096,2292],[5096,2288],[5104,2288],[5104,2284],[5116,2284],[5116,2280],[5124,2280],[5124,2276],[5132,2276],[5132,2272],[5140,2272],[5140,2268],[5144,2268],[5144,2264],[5148,2264],[5148,2260],[5152,2260],[5152,2256],[5160,2256],[5160,2252],[5172,2252],[5176,2248]]]}},{"type":"Feature","properties":{"regionKey":"india_kamarupa_pragjyotisha","settlement":"Pragjyotişa","country":"Kamarupa","component":"9-1"},"geometry":{"type":"Polygon","coordinates":[[[4924,2484],[4924,2488],[4928,2488],[4924,2484]]]}},{"type":"Feature","properties":{"regionKey":"india_kamarupa_pragjyotisha","settlement":"Pragjyotişa","country":"Kamarupa","component":"9-2"},"geometry":{"type":"Polygon","coordinates":[[[4912,2488],[4912,2492],[4916,2492],[4916,2496],[4924,2496],[4924,2500],[4928,2500],[4928,2492],[4916,2492],[4912,2488]]]}},{"type":"Feature","properties":{"regionKey":"india_kamarupa_pragjyotisha","settlement":"Pragjyotişa","country":"Kamarupa","component":"9-3"},"geometry":{"type":"Polygon","coordinates":[[[4916,2504],[4916,2508],[4924,2508],[4924,2504],[4916,2504]]]}},{"type":"Feature","properties":{"regionKey":"india_kamarupa_pragjyotisha","settlement":"Pragjyotişa","country":"Kamarupa","component":"9-4"},"geometry":{"type":"Polygon","coordinates":[[[4920,2528],[4920,2532],[4924,2532],[4920,2528]]]}},{"type":"Feature","properties":{"regionKey":"india_kamarupa_pragjyotisha","settlement":"Pragjyotişa","country":"Kamarupa","component":"9-5"},"geometry":{"type":"Polygon","coordinates":[[[4964,2528],[4964,2532],[4968,2532],[4968,2536],[4964,2536],[4964,2532],[4960,2532],[4964,2528]]]}},{"type":"Feature","properties":{"regionKey":"india_kamarupa_pragjyotisha","settlement":"Pragjyotişa","country":"Kamarupa","component":"9-6"},"geometry":{"type":"Polygon","coordinates":[[[4888,2540],[4888,2544],[4892,2544],[4888,2540]]]}},{"type":"Feature","properties":{"regionKey":"india_kamarupa_pragjyotisha","settlement":"Pragjyotişa","country":"Kamarupa","component":"9-7"},"geometry":{"type":"Polygon","coordinates":[[[4948,2536],[4948,2548],[4944,2548],[4944,2552],[4940,2552],[4940,2548],[4944,2548],[4948,2536]]]}},{"type":"Feature","properties":{"regionKey":"india_kamarupa_pragjyotisha","settlement":"Pragjyotişa","country":"Kamarupa","component":"9-8"},"geometry":{"type":"Polygon","coordinates":[[[4940,2544],[4940,2548],[4936,2548],[4940,2544]]]}},{"type":"Feature","properties":{"regionKey":"india_kamarupa_pragjyotisha","settlement":"Pragjyotişa","country":"Kamarupa","component":"9-9"},"geometry":{"type":"Polygon","coordinates":[[[4908,2556],[4908,2560],[4912,2560],[4908,2556]]]}},{"type":"Feature","properties":{"regionKey":"india_chola_urayur","settlement":"Uraiyur","country":"Çola","component":"10-0"},"geometry":{"type":"Polygon","coordinates":[[[4356,2972],[4356,2976],[4408,2976],[4408,2980],[4436,2980],[4436,3000],[4432,3000],[4432,3020],[4428,3020],[4428,3028],[4424,3028],[4424,3036],[4420,3036],[4420,3040],[4416,3040],[4416,3048],[4412,3048],[4412,3060],[4408,3060],[4408,3080],[4412,3080],[4412,3100],[4408,3100],[4408,3132],[4404,3132],[4404,3128],[4400,3128],[4400,3132],[4396,3132],[4396,3128],[4392,3128],[4392,3132],[4384,3132],[4384,3136],[4380,3136],[4380,3148],[4376,3148],[4376,3152],[4372,3152],[4372,3160],[4368,3160],[4368,3164],[4364,3164],[4364,3176],[4368,3176],[4368,3180],[4360,3180],[4360,3184],[4356,3184],[4356,3180],[4352,3180],[4352,3148],[4348,3148],[4348,3124],[4344,3124],[4344,3104],[4340,3104],[4340,3084],[4336,3084],[4336,3068],[4332,3068],[4332,3052],[4328,3052],[4328,3036],[4324,3036],[4324,3020],[4320,3020],[4320,3000],[4316,3000],[4316,2980],[4312,2980],[4356,2972]]]}},{"type":"Feature","properties":{"regionKey":"india_chola_urayur","settlement":"Uraiyur","country":"Çola","component":"10-1"},"geometry":{"type":"Polygon","coordinates":[[[4404,3080],[4404,3084],[4408,3084],[4404,3080]]]}},{"type":"Feature","properties":{"regionKey":"india_chola_urayur","settlement":"Uraiyur","country":"Çola","component":"10-2"},"geometry":{"type":"Polygon","coordinates":[[[4384,3176],[4384,3180],[4380,3180],[4384,3176]]]}},{"type":"Feature","properties":{"regionKey":"india_pandya_madurai","settlement":"Madurai","country":"Pandya","component":"11-0"},"geometry":{"type":"Polygon","coordinates":[[[4296,2964],[4296,2968],[4308,2968],[4308,2972],[4312,2972],[4312,2980],[4316,2980],[4316,3000],[4320,3000],[4320,3020],[4324,3020],[4324,3036],[4328,3036],[4328,3052],[4332,3052],[4332,3068],[4336,3068],[4336,3084],[4340,3084],[4340,3104],[4344,3104],[4344,3124],[4348,3124],[4348,3148],[4352,3148],[4352,3180],[4356,3180],[4356,3184],[4352,3184],[4352,3188],[4340,3188],[4340,3192],[4336,3192],[4336,3196],[4332,3196],[4332,3200],[4328,3200],[4328,3220],[4324,3220],[4324,3224],[4320,3224],[4320,3228],[4316,3228],[4316,3232],[4312,3232],[4312,3236],[4300,3236],[4300,3240],[4288,3240],[4288,3236],[4284,3236],[4284,3232],[4276,3232],[4276,3228],[4272,3228],[4272,3220],[4268,3220],[4268,3216],[4264,3216],[4264,3212],[4260,3212],[4260,3208],[4256,3208],[4256,3200],[4252,3200],[4252,3188],[4248,3188],[4248,3176],[4252,3176],[4252,3160],[4248,3160],[4248,3156],[4252,3156],[4252,3140],[4256,3140],[4256,3124],[4260,3124],[4260,3100],[4264,3100],[4264,3072],[4268,3072],[4268,3032],[4272,3032],[4272,2996],[4276,2996],[4296,2964]]]}},{"type":"Feature","properties":{"regionKey":"india_pandya_madurai","settlement":"Madurai","country":"Pandya","component":"11-1"},"geometry":{"type":"Polygon","coordinates":[[[4248,3172],[4248,3176],[4244,3176],[4248,3172]]]}},{"type":"Feature","properties":{"regionKey":"india_chera_muziris","settlement":"Muziris","country":"Çera","component":"12-0"},"geometry":{"type":"Polygon","coordinates":[[[4244,2920],[4244,2928],[4248,2928],[4248,2932],[4252,2932],[4252,2936],[4256,2936],[4256,2940],[4260,2940],[4260,2944],[4264,2944],[4264,2948],[4268,2948],[4268,2952],[4272,2952],[4272,2956],[4276,2956],[4276,2960],[4280,2960],[4280,2964],[4276,2964],[4276,2996],[4272,2996],[4272,3032],[4268,3032],[4268,3072],[4264,3072],[4264,3100],[4260,3100],[4260,3124],[4256,3124],[4256,3140],[4252,3140],[4252,3156],[4244,3156],[4244,3152],[4240,3152],[4240,3136],[4236,3136],[4236,3128],[4232,3128],[4232,3116],[4228,3116],[4228,3100],[4224,3100],[4224,3088],[4220,3088],[4220,3084],[4216,3084],[4216,3076],[4212,3076],[4212,3072],[4208,3072],[4208,3060],[4204,3060],[4204,3064],[4200,3064],[4200,3052],[4196,3052],[4196,3048],[4192,3048],[4192,3036],[4188,3036],[4188,3024],[4184,3024],[4184,3008],[4180,3008],[4180,2984],[4176,2984],[4176,2972],[4172,2972],[4172,2960],[4168,2960],[4168,2952],[4172,2952],[4172,2948],[4164,2948],[4164,2940],[4160,2940],[4160,2932],[4152,2932],[4152,2924],[4204,2924],[4244,2920]]]}},{"type":"Feature","properties":{"regionKey":"india_chera_muziris","settlement":"Muziris","country":"Çera","component":"12-1"},"geometry":{"type":"Polygon","coordinates":[[[4248,3160],[4248,3172],[4244,3172],[4248,3160]]]}}]}